{"type": "FeatureCollection", "features": [{"type": "Feature", "properties": {"norad_id": 49537, "name": "COSMOS 1408 DEB", "group": "cosmos-1408-debris", "lat": -56.59106966691776, "lon": 93.31721392814497, "alt_km": 119.57392898278431, "timestamp": "2025-12-03T08:58:46.271800+00:00", "meta": {"OBJECT_NAME": "COSMOS 1408 DEB", "OBJECT_ID": "1982-092AA", "EPOCH": "2025-12-01T10:29:21.651360", "MEAN_MOTION": 16.33498888, "ECCENTRICITY": 0.00127731, "INCLINATION": 82.5092, "RA_OF_ASC_NODE": 107.1368, "ARG_OF_PERICENTER": 299.8571, "MEAN_ANOMALY": 60.1455, "EPHEMERIS_TYPE": 0, "CLASSIFICATION_TYPE": "U", "NORAD_CAT_ID": 49537, "ELEMENT_SET_NO": 999, "REV_AT_EPOCH": 22403, "BSTAR": 0.00094222941, "MEAN_MOTION_DOT": 0.05878558, "MEAN_MOTION_DDOT": -1.252052e-06}, "tle": {"line1": "1 49537U 82092AA  25335.43705615  .05878558 -12521-5  94223-3 0  9994", "line2": "2 49537  82.5092 107.1368 0012773 299.8571  60.1455 16.33498888224033"}}, "geometry": {"type": "Point", "coordinates": [93.31721392814497, -56.59106966691776]}}, {"type": "Feature", "properties": {"norad_id": 50032, "name": "COSMOS 1408 DEB", "group": "cosmos-1408-debris", "lat": -67.41270555376418, "lon": -93.59864984898668, "alt_km": 427.09044252688636, "timestamp": "2025-12-03T08:58:46.271822+00:00", "meta": {"OBJECT_NAME": "COSMOS 1408 DEB", "OBJECT_ID": "1982-092RU", "EPOCH": "2025-12-03T04:47:55.782816", "MEAN_MOTION": 15.45539666, "ECCENTRICITY": 0.0014673, "INCLINATION": 82.5653, "RA_OF_ASC_NODE": 68.2848, "ARG_OF_PERICENTER": 246.0384, "MEAN_ANOMALY": 113.9328, "EPHEMERIS_TYPE": 0, "CLASSIFICATION_TYPE": "U", "NORAD_CAT_ID": 50032, "ELEMENT_SET_NO": 999, "REV_AT_EPOCH": 22456, "BSTAR": 0.00015428, "MEAN_MOTION_DOT": 7.475e-05, "MEAN_MOTION_DDOT": 0}, "tle": {"line1": "1 50032U 82092RU  25337.19995119  .00007475  00000+0  15428-3 0  9990", "line2": "2 50032  82.5653  68.2848 0014673 246.0384 113.9328 15.45539666224561"}}, "geometry": {"type": "Point", "coordinates": [-93.59864984898668, -67.41270555376418]}}, {"type": "Feature", "properties": {"norad_id": 50058, "name": "COSMOS 1408 DEB", "group": "cosmos-1408-debris", "lat": -22.402777067821205, "lon": -97.7976427546664, "alt_km": 380.0689985265508, "timestamp": "2025-12-03T08:58:46.271836+00:00", "meta": {"OBJECT_NAME": "COSMOS 1408 DEB", "OBJECT_ID": "1982-092SW", "EPOCH": "2025-12-02T19:49:36.621120", "MEAN_MOTION": 15.63203484, "ECCENTRICITY": 0.0016296, "INCLINATION": 82.6133, "RA_OF_ASC_NODE": 79.7095, "ARG_OF_PERICENTER": 134.2871, "MEAN_ANOMALY": 225.9728, "EPHEMERIS_TYPE": 0, "CLASSIFICATION_TYPE": "U", "NORAD_CAT_ID": 50058, "ELEMENT_SET_NO": 999, "REV_AT_EPOCH": 22649, "BSTAR": 0.00043578, "MEAN_MOTION_DOT": 0.0004023, "MEAN_MOTION_DDOT": 0}, "tle": {"line1": "1 50058U 82092SW  25336.82611830  .00040230  00000+0  43578-3 0  9995", "line2": "2 50058  82.6133  79.7095 0016296 134.2871 225.9728 15.63203484226494"}}, "geometry": {"type": "Point", "coordinates": [-97.7976427546664, -22.402777067821205]}}, {"type": "Feature", "properties": {"norad_id": 50404, "name": "COSMOS 1408 DEB", "group": "cosmos-1408-debris", "lat": -44.22144026930808, "lon": 52.267262864429355, "alt_km": 416.316530704009, "timestamp": "2025-12-03T08:58:46.271848+00:00", "meta": {"OBJECT_NAME": "COSMOS 1408 DEB", "OBJECT_ID": "1982-092ADS", "EPOCH": "2025-12-03T03:12:53.923680", "MEAN_MOTION": 15.11741121, "ECCENTRICITY": 0.0176623, "INCLINATION": 82.2064, "RA_OF_ASC_NODE": 224.8525, "ARG_OF_PERICENTER": 232.1925, "MEAN_ANOMALY": 126.3205, "EPHEMERIS_TYPE": 0, "CLASSIFICATION_TYPE": "U", "NORAD_CAT_ID": 50404, "ELEMENT_SET_NO": 999, "REV_AT_EPOCH": 21048, "BSTAR": 0.003499, "MEAN_MOTION_DOT": 0.00088069, "MEAN_MOTION_DDOT": 0}, "tle": {"line1": "1 50404U 82092ADS 25337.13395745  .00088069  00000+0  34990-2 0  9998", "line2": "2 50404  82.2064 224.8525 0176623 232.1925 126.3205 15.11741121210482"}}, "geometry": {"type": "Point", "coordinates": [52.267262864429355, -44.22144026930808]}}, {"type": "Feature", "properties": {"norad_id": 50621, "name": "COSMOS 1408 DEB", "group": "cosmos-1408-debris", "lat": 71.36608801747809, "lon": -118.84449444589443, "alt_km": 389.1066477009608, "timestamp": "2025-12-03T08:58:46.271860+00:00", "meta": {"OBJECT_NAME": "COSMOS 1408 DEB", "OBJECT_ID": "1982-092ALR", "EPOCH": "2025-12-03T00:48:05.546592", "MEAN_MOTION": 15.5587706, "ECCENTRICITY": 0.002889, "INCLINATION": 82.5703, "RA_OF_ASC_NODE": 84.2784, "ARG_OF_PERICENTER": 188.0266, "MEAN_ANOMALY": 172.0531, "EPHEMERIS_TYPE": 0, "CLASSIFICATION_TYPE": "U", "NORAD_CAT_ID": 50621, "ELEMENT_SET_NO": 999, "REV_AT_EPOCH": 22099, "BSTAR": 0.00051795, "MEAN_MOTION_DOT": 0.00036668, "MEAN_MOTION_DDOT": 0}, "tle": {"line1": "1 50621U 82092ALR 25337.03339753  .00036668  00000+0  51795-3 0  9996", "line2": "2 50621  82.5703  84.2784 0028890 188.0266 172.0531 15.55877060220997"}}, "geometry": {"type": "Point", "coordinates": [-118.84449444589443, 71.36608801747809]}}]}